COSMOS 2456 (730)       
1 36111U 09070A   26086.46425047  .00000041  00000+0  00000+0 0  9995
2 36111  64.9641  73.7582 0006535 309.8449 251.0676  2.13103415126682
